{
  "type": "FeatureCollection",
  "features": [
    {
      "type": "Feature",
      "properties": {
        "name": "Midtbyen",
        "n": 1
      },
      "geometry": {
        "type": "Polygon",
        "coordinates": [
          [
            [
              9.9245299375,
              57.03068973513073
            ],
            [
              9.919538937499999,
              57.03117895848157
            ],
            [
              9.916376937499999,
              57.031651305950945
            ],
            [
              9.909773937499999,
              57.033118918710095
            ],
            [
              9.9054339375,
              57.03379366374736
            ],
            [
              9.9045039375,
              57.03413103167167
            ],
            [
              9.9030469375,
              57.0350250418582
            ],
            [
              9.9018379375,
              57.03537926635989
            ],
            [
              9.896691937499998,
              57.03629011385875
            ],
            [
              9.8921969375,
              57.03661059192783
            ],
            [
              9.889375937499999,
              57.03736960790773
            ],
            [
              9.885872937499999,
              57.039005656287685
            ],
            [
              9.8840129375,
              57.04001760891349
            ],
            [
              9.883237937499999,
              57.040607901882915
            ],
            [
              9.8819359375,
              57.042429318208875
            ],
            [
              9.880819937499998,
              57.04570089732985
            ],
            [
              9.872449937499999,
              57.0467126675859
            ],
            [
              9.872449937499999,
              57.049747812992706
            ],
            [
              9.8682339375,
              57.05116412929941
            ],
            [
              9.8631499375,
              57.052108310162254
            ],
            [
              9.863242937499999,
              57.05408089627809
            ],
            [
              9.8637079375,
              57.05635682697267
            ],
            [
              9.866807937499999,
              57.064447895220866
            ],
            [
              9.8671799375,
              57.066099604882936
            ],
            [
              9.8707759375,
              57.066032189600875
            ],
            [
              9.8744339375,
              57.06566140336072
            ],
            [
              9.8783709375,
              57.06510521705499
            ],
            [
              9.884415937499998,
              57.06400967419753
            ],
            [
              9.894428937499999,
              57.06119482351166
            ],
            [
              9.9054649375,
              57.057418880221746
            ],
            [
              9.9094949375,
              57.05590165199423
            ],
            [
              9.913927937499999,
              57.054434939104354
            ],
            [
              9.918453937499999,
              57.053187344610066
            ],
            [
              9.921522937499999,
              57.05249609177626
            ],
            [
              9.9239409375,
              57.052125170316636
            ],
            [
              9.927133937499999,
              57.05183854665107
            ],
            [
              9.931287937499999,
              57.05173738482914
            ],
            [
              9.9351009375,
              57.051922847958835
            ],
            [
              9.939006937499999,
              57.05249609177626
            ],
            [
              9.9448349375,
              57.05370999064884
            ],
            [
              9.9473459375,
              57.054367502635834
            ],
            [
              9.953204937499999,
              57.05623881918076
            ],
            [
              9.9627219375,
              57.05982945977615
            ],
            [
              9.964085937499998,
              57.060267730151544
            ],
            [
              9.965449937499999,
              57.06053743242618
            ],
            [
              9.965449937499999,
              57.06036886873415
            ],
            [
              9.970006937499999,
              57.058126898843135
            ],
            [
              9.9719599375,
              57.056660273858185
            ],
            [
              9.9719599375,
              57.05615452767114
            ],
            [
              9.9689219375,
              57.05392916260482
            ],
            [
              9.9673099375,
              57.05193970819744
            ],
            [
              9.9643649375,
              57.05151819993624
            ],
            [
              9.962597937499998,
              57.05096180170552
            ],
            [
              9.9596839375,
              57.04934314126949
            ],
            [
              9.954754937499999,
              57.04612247161926
            ],
            [
              9.9526159375,
              57.044082007593154
            ],
            [
              9.9463539375,
              57.03686359897728
            ],
            [
              9.9448659375,
              57.03564914942799
            ],
            [
              9.943036937499999,
              57.03462020972141
            ],
            [
              9.941486937499999,
              57.03394547969234
            ],
            [
              9.939564937499998,
              57.03330447481669
            ],
            [
              9.935007937499998,
              57.032073039689806
            ],
            [
              9.9305129375,
              57.031313915514005
            ],
            [
              9.9245299375,
              57.03068973513073
            ]
          ]
        ]
      }
    },
    {
      "type": "Feature",
      "properties": {
        "name": "Nørresundby",
        "n": 2
      },
      "geometry": {
        "type": "Polygon",
        "coordinates": [
          [
            [
              9.8671799375,
              57.066099604882936
            ],
            [
              9.8671799375,
              57.066268142552325
            ],
            [
              9.8645449375,
              57.066858018368194
            ],
            [
              9.852609937499999,
              57.06879611575398
            ],
            [
              9.8522999375,
              57.06879611575398
            ],
            [
              9.852175937499998,
              57.069065756065434
            ],
            [
              9.851710937499998,
              57.06948706512992
            ],
            [
              9.850625937499998,
              57.07007688978461
            ],
            [
              9.822074937499998,
              57.08353919439691
            ],
            [
              9.8114729375,
              57.088390491981
            ],
            [
              9.809116937499999,
              57.089636903468005
            ],
            [
              9.8068229375,
              57.09058010593442
            ],
            [
              9.8047459375,
              57.09164118003142
            ],
            [
              9.803102937499999,
              57.092095916777815
            ],
            [
              9.7988249375,
              57.09246643889214
            ],
            [
              9.796809937499999,
              57.09305589826111
            ],
            [
              9.797584937499998,
              57.09431899392353
            ],
            [
              9.798855937499999,
              57.09514419318223
            ],
            [
              9.8130849375,
              57.100886397723585
            ],
            [
              9.819408937499999,
              57.10334466496951
            ],
            [
              9.820059937499998,
              57.10349619665634
            ],
            [
              9.819904937499999,
              57.10475893661933
            ],
            [
              9.8191299375,
              57.10652670028701
            ],
            [
              9.8202459375,
              57.10743580305227
            ],
            [
              9.821392937499999,
              57.10799135487388
            ],
            [
              9.823903937499999,
              57.10898459343373
            ],
            [
              9.8262599375,
              57.10955695610515
            ],
            [
              9.8283989375,
              57.109068764969344
            ],
            [
              9.831777937499998,
              57.10884991857909
            ],
            [
              9.835373937499998,
              57.10777250212028
            ],
            [
              9.837760937499999,
              57.10738529792818
            ],
            [
              9.8412019375,
              57.10735162780721
            ],
            [
              9.847432937499999,
              57.10777250212028
            ],
            [
              9.849106937499998,
              57.107654657794455
            ],
            [
              9.849509937499999,
              57.10753681309388
            ],
            [
              9.850067937499999,
              57.106156318692214
            ],
            [
              9.850098937499999,
              57.10502831557643
            ],
            [
              9.8498199375,
              57.10366456447061
            ],
            [
              9.8518349375,
              57.10290690328287
            ],
            [
              9.853787937499998,
              57.10245229913543
            ],
            [
              9.8554309375,
              57.10226708843969
            ],
            [
              9.8575699375,
              57.10231760053939
            ],
            [
              9.857693937499999,
              57.10349619665634
            ],
            [
              9.8575389375,
              57.10433802807884
            ],
            [
              9.855740937499998,
              57.110078808482385
            ],
            [
              9.854283937499998,
              57.11551573633529
            ],
            [
              9.8523309375,
              57.12169233004403
            ],
            [
              9.851183937499998,
              57.12594970907545
            ],
            [
              9.851090937499999,
              57.127379943970006
            ],
            [
              9.8513699375,
              57.12874282228877
            ],
            [
              9.852237937499998,
              57.12892790066076
            ],
            [
              9.8535089375,
              57.12906250253203
            ],
            [
              9.856608937499999,
              57.12886059954161
            ],
            [
              9.8656299375,
              57.12891107539243
            ],
            [
              9.870899937499999,
              57.12874282228877
            ],
            [
              9.8841369375,
              57.128692346208595
            ],
            [
              9.885934937499998,
              57.128490441199645
            ],
            [
              9.888414937499999,
              57.12798567386044
            ],
            [
              9.8922899375,
              57.12672372540636
            ],
            [
              9.891855937499999,
              57.12527663824494
            ],
            [
              9.8905849375,
              57.12361073532888
            ],
            [
              9.8850359375,
              57.11719883398558
            ],
            [
              9.8830209375,
              57.11509494997362
            ],
            [
              9.8774719375,
              57.108513229300954
            ],
            [
              9.876541937499999,
              57.10699808969006
            ],
            [
              9.876169937499998,
              57.10551655994544
            ],
            [
              9.878246937499998,
              57.10512933218055
            ],
            [
              9.8810059375,
              57.10410231720806
            ],
            [
              9.883826937499999,
              57.10361405420662
            ],
            [
              9.8870509375,
              57.102839554872126
            ],
            [
              9.888941937499999,
              57.10251964824986
            ],
            [
              9.897559937499999,
              57.10147572322309
            ],
            [
              9.897559937499999,
              57.10054963608821
            ],
            [
              9.897125937499998,
              57.099690880069055
            ],
            [
              9.895017937499999,
              57.097131332349555
            ],
            [
              9.893126937499998,
              57.09563256776493
            ],
            [
              9.892599937499998,
              57.09440319877102
            ],
            [
              9.892599937499998,
              57.09406637823358
            ],
            [
              9.897559937499999,
              57.09356114168986
            ],
            [
              9.897621937499999,
              57.09229802020829
            ],
            [
              9.896629937499998,
              57.089417942321326
            ],
            [
              9.896629937499998,
              57.08850839756439
            ],
            [
              9.898551937499999,
              57.08837364829563
            ],
            [
              9.901589937499999,
              57.08833996090193
            ],
            [
              9.908967937499998,
              57.088542084805084
            ],
            [
              9.915539937499998,
              57.0888452685941
            ],
            [
              9.915973937499999,
              57.08962006034879
            ],
            [
              9.9167799375,
              57.090361150357325
            ],
            [
              9.9207789375,
              57.0903779931399
            ],
            [
              9.9263589375,
              57.09054642054516
            ],
            [
              9.9284359375,
              57.09076537502827
            ],
            [
              9.928869937499998,
              57.09086643050744
            ],
            [
              9.9295209375,
              57.09186012804993
            ],
            [
              9.9301099375,
              57.09389796681735
            ],
            [
              9.932434937499998,
              57.09465581216598
            ],
            [
              9.9367749375,
              57.096339857478775
            ],
            [
              9.9408669375,
              57.097653359718
            ],
            [
              9.944214937499998,
              57.0990341708651
            ],
            [
              9.9458889375,
              57.09947197829382
            ],
            [
              9.9483999375,
              57.09962352581436
            ],
            [
              9.9504149375,
              57.098697392401185
            ],
            [
              9.9521199375,
              57.0981080227267
            ],
            [
              9.955281937499999,
              57.098411128301095
            ],
            [
              9.961884937499999,
              57.09852900202181
            ],
            [
              9.963372937499999,
              57.09873107038527
            ],
            [
              9.9648299375,
              57.09911836500298
            ],
            [
              9.9663799375,
              57.10147572322309
            ],
            [
              9.963124937499998,
              57.10374874809091
            ],
            [
              9.962039937499998,
              57.104674755293665
            ],
            [
              9.9633419375,
              57.10750314311059
            ],
            [
              9.963930937499999,
              57.10937178091425
            ],
            [
              9.964612937499998,
              57.110179811319355
            ],
            [
              9.965604937499998,
              57.110819489559724
            ],
            [
              9.9694799375,
              57.11208197999416
            ],
            [
              9.9693869375,
              57.11371473715766
            ],
            [
              9.9688599375,
              57.11561672435087
            ],
            [
              9.971680937499999,
              57.11660975850683
            ],
            [
              9.9740059375,
              57.11703052766188
            ],
            [
              9.977787937499999,
              57.11709785028313
            ],
            [
              9.984855937499999,
              57.11672757435201
            ],
            [
              9.987025937499999,
              57.11639095665735
            ],
            [
              9.991210937499998,
              57.11546524222427
            ],
            [
              9.9924199375,
              57.11544841083861
            ],
            [
              9.993070937499999,
              57.115599893034044
            ],
            [
              9.993659937499999,
              57.11561672435087
            ],
            [
              9.9955509375,
              57.11644144950655
            ],
            [
              9.998619937499999,
              57.117468122512925
            ],
            [
              9.9995499375,
              57.117468122512925
            ],
            [
              10.007578937499998,
              57.114590000030475
            ],
            [
              10.010461937499999,
              57.113293930338706
            ],
            [
              10.0128489375,
              57.11240180407464
            ],
            [
              10.013654937499998,
              57.11199781530358
            ],
            [
              10.015638937499999,
              57.110213478870484
            ],
            [
              10.018645937499999,
              57.1069644192173
            ],
            [
              10.022799937499999,
              57.101980851907605
            ],
            [
              10.0224899375,
              57.101980851907605
            ],
            [
              10.019761937499998,
              57.10076853149923
            ],
            [
              10.0088189375,
              57.09728288943965
            ],
            [
              10.0015339375,
              57.093830602036654
            ],
            [
              9.9959229375,
              57.09098432821842
            ],
            [
              9.993132937499999,
              57.08946847193149
            ],
            [
              9.9907459375,
              57.08790202199899
            ],
            [
              9.9857549375,
              57.08421302367738
            ],
            [
              9.982282937499999,
              57.08222519208869
            ],
            [
              9.979864937499999,
              57.080675283377914
            ],
            [
              9.978252937499999,
              57.07919270140141
            ],
            [
              9.9760519375,
              57.07651379507449
            ],
            [
              9.9745329375,
              57.07380099469359
            ],
            [
              9.972734937499999,
              57.06989151733189
            ],
            [
              9.9683949375,
              57.06517263402078
            ],
            [
              9.966503937499999,
              57.06282982264915
            ],
            [
              9.9657909375,
              57.06170050104015
            ],
            [
              9.965449937499999,
              57.06053743242618
            ],
            [
              9.964085937499998,
              57.060267730151544
            ],
            [
              9.9627219375,
              57.05982945977615
            ],
            [
              9.953204937499999,
              57.05623881918076
            ],
            [
              9.9473459375,
              57.054367502635834
            ],
            [
              9.9448349375,
              57.05370999064884
            ],
            [
              9.939006937499999,
              57.05249609177626
            ],
            [
              9.9351009375,
              57.051922847958835
            ],
            [
              9.931287937499999,
              57.05173738482914
            ],
            [
              9.927133937499999,
              57.05183854665107
            ],
            [
              9.9239409375,
              57.052125170316636
            ],
            [
              9.921522937499999,
              57.05249609177626
            ],
            [
              9.918453937499999,
              57.053187344610066
            ],
            [
              9.913927937499999,
              57.054434939104354
            ],
            [
              9.9094949375,
              57.05590165199423
            ],
            [
              9.9054649375,
              57.057418880221746
            ],
            [
              9.894428937499999,
              57.06119482351166
            ],
            [
              9.884415937499998,
              57.06400967419753
            ],
            [
              9.8783709375,
              57.06510521705499
            ],
            [
              9.8744339375,
              57.06566140336072
            ],
            [
              9.8707759375,
              57.066032189600875
            ],
            [
              9.8671799375,
              57.066099604882936
            ]
          ]
        ]
      }
    },
    {
      "type": "Feature",
      "properties": {
        "name": "Vest Aalborg",
        "n": 3
      },
      "geometry": {
        "type": "Polygon",
        "coordinates": [
          [
            [
              9.8994199375,
              56.983930777491615
            ],
            [
              9.8987999375,
              56.983930777491615
            ],
            [
              9.8967539375,
              56.982849731329274
            ],
            [
              9.895482937499999,
              56.98168419327237
            ],
            [
              9.8936849375,
              56.979792227734876
            ],
            [
              9.892103937499998,
              56.977612969728646
            ],
            [
              9.8875779375,
              56.969604368272485
            ],
            [
              9.886244937499999,
              56.96762729659024
            ],
            [
              9.883857937499998,
              56.96487273975508
            ],
            [
              9.8820289375,
              56.963334831092446
            ],
            [
              9.879176937499999,
              56.96134052533446
            ],
            [
              9.876014937499999,
              56.95968415636614
            ],
            [
              9.871116937499998,
              56.95762204313899
            ],
            [
              9.8619719375,
              56.95432580554104
            ],
            [
              9.8579729375,
              56.952449355474954
            ],
            [
              9.855802937499998,
              56.95126596001665
            ],
            [
              9.852578937499999,
              56.9489666842968
            ],
            [
              9.8504089375,
              56.9469377938327
            ],
            [
              9.848641937499998,
              56.94468897789831
            ],
            [
              9.8467199375,
              56.94337006034221
            ],
            [
              9.846409937499999,
              56.94337006034221
            ],
            [
              9.845014937499998,
              56.94379279540813
            ],
            [
              9.843898937499999,
              56.94436770740687
            ],
            [
              9.840364937499999,
              56.94852710073251
            ],
            [
              9.8364279375,
              56.952297206734904
            ],
            [
              9.8354359375,
              56.95310865950564
            ],
            [
              9.8273449375,
              56.9585009905981
            ],
            [
              9.823934937499999,
              56.961374328016184
            ],
            [
              9.8211449375,
              56.964416443807885
            ],
            [
              9.818974937499998,
              56.96728932511776
            ],
            [
              9.817858937499999,
              56.969046743293475
            ],
            [
              9.8170839375,
              56.97065200475094
            ],
            [
              9.8160299375,
              56.973456821888526
            ],
            [
              9.815409937499998,
              56.97683583912737
            ],
            [
              9.815440937499998,
              56.983407149676474
            ],
            [
              9.8166499375,
              56.99406405882856
            ],
            [
              9.816277937499999,
              56.99858936661975
            ],
            [
              9.815316937499999,
              57.00380629597291
            ],
            [
              9.814200937499999,
              57.0077564936347
            ],
            [
              9.813146937499999,
              57.010389725713146
            ],
            [
              9.809767937499998,
              57.01698886646631
            ],
            [
              9.803164937499998,
              57.026556384272055
            ],
            [
              9.8013359375,
              57.029103932414316
            ],
            [
              9.8006849375,
              57.029761880052114
            ],
            [
              9.799599937499998,
              57.030521035930306
            ],
            [
              9.795383937499999,
              57.03011615472499
            ],
            [
              9.790733937499999,
              57.029441342914296
            ],
            [
              9.787819937499998,
              57.02934012008594
            ],
            [
              9.787354937499998,
              57.0307740844438
            ],
            [
              9.7869829375,
              57.03293336167696
            ],
            [
              9.7863629375,
              57.03797680952798
            ],
            [
              9.7864249375,
              57.0388707271883
            ],
            [
              9.7869829375,
              57.03974775757506
            ],
            [
              9.792283937499999,
              57.04479028053477
            ],
            [
              9.796003937499998,
              57.04866867859861
            ],
            [
              9.796902937499999,
              57.04936000267933
            ],
            [
              9.7981739375,
              57.05001759169177
            ],
            [
              9.799444937499999,
              57.05050656058877
            ],
            [
              9.8075049375,
              57.05303560728547
            ],
            [
              9.8145729375,
              57.05509243825427
            ],
            [
              9.820524937499998,
              57.056913144368295
            ],
            [
              9.8289259375,
              57.059930599552814
            ],
            [
              9.8318399375,
              57.06087455751402
            ],
            [
              9.8349089375,
              57.06207132684966
            ],
            [
              9.8379779375,
              57.06309950630948
            ],
            [
              9.840364937499999,
              57.063992819439456
            ],
            [
              9.844425937499999,
              57.06532432174613
            ],
            [
              9.850718937499998,
              57.06763326946808
            ],
            [
              9.852051937499999,
              57.06825682925349
            ],
            [
              9.852609937499999,
              57.068627589564414
            ],
            [
              9.852609937499999,
              57.06879611575398
            ],
            [
              9.8645449375,
              57.066858018368194
            ],
            [
              9.8671799375,
              57.066268142552325
            ],
            [
              9.8671799375,
              57.066099604882936
            ],
            [
              9.866807937499999,
              57.064447895220866
            ],
            [
              9.8637079375,
              57.05635682697267
            ],
            [
              9.863242937499999,
              57.05408089627809
            ],
            [
              9.8631499375,
              57.052108310162254
            ],
            [
              9.8682339375,
              57.05116412929941
            ],
            [
              9.872449937499999,
              57.049747812992706
            ],
            [
              9.872449937499999,
              57.0467126675859
            ],
            [
              9.880819937499998,
              57.04570089732985
            ],
            [
              9.8819359375,
              57.042429318208875
            ],
            [
              9.883237937499999,
              57.040607901882915
            ],
            [
              9.8840129375,
              57.04001760891349
            ],
            [
              9.885872937499999,
              57.039005656287685
            ],
            [
              9.889375937499999,
              57.03736960790773
            ],
            [
              9.8921969375,
              57.03661059192783
            ],
            [
              9.896691937499998,
              57.03629011385875
            ],
            [
              9.9018379375,
              57.03537926635989
            ],
            [
              9.9030469375,
              57.0350250418582
            ],
            [
              9.9045039375,
              57.03413103167167
            ],
            [
              9.9054339375,
              57.03379366374736
            ],
            [
              9.909773937499999,
              57.033118918710095
            ],
            [
              9.916376937499999,
              57.031651305950945
            ],
            [
              9.919538937499999,
              57.03117895848157
            ],
            [
              9.9245299375,
              57.03068973513073
            ],
            [
              9.9243749375,
              57.028074811470624
            ],
            [
              9.923103937499999,
              57.02437986377917
            ],
            [
              9.922018937499999,
              57.0224394473659
            ],
            [
              9.917554937499999,
              57.01626318706814
            ],
            [
              9.916872937499999,
              57.01494680224783
            ],
            [
              9.9161599375,
              57.01297213764139
            ],
            [
              9.914082937499998,
              57.00380629597291
            ],
            [
              9.913400937499999,
              56.999112780893874
            ],
            [
              9.913028937499998,
              56.991885636123065
            ],
            [
              9.912439937499999,
              56.99017996035695
            ],
            [
              9.9084719375,
              56.98896398535656
            ],
            [
              9.904193937499999,
              56.987241286108066
            ],
            [
              9.9004739375,
              56.985214479041275
            ],
            [
              9.899698937499998,
              56.98445439794242
            ],
            [
              9.8994199375,
              56.983930777491615
            ]
          ]
        ]
      }
    },
    {
      "type": "Feature",
      "properties": {
        "name": "Øst Aalborg",
        "n": 4
      },
      "geometry": {
        "type": "Polygon",
        "coordinates": [
          [
            [
              9.8994199375,
              56.983930777491615
            ],
            [
              9.899729937499998,
              56.983930777491615
            ],
            [
              9.9009079375,
              56.98322134448802
            ],
            [
              9.9033569375,
              56.98202203414539
            ],
            [
              9.9091849375,
              56.97894756922504
            ],
            [
              9.913028937499998,
              56.97715682981979
            ],
            [
              9.916593937499998,
              56.97588974520256
            ],
            [
              9.9203139375,
              56.97470709399764
            ],
            [
              9.923630937499999,
              56.97398058963714
            ],
            [
              9.928683937499999,
              56.9731864872655
            ],
            [
              9.9330239375,
              56.97284856622752
            ],
            [
              9.938014937499998,
              56.97273029313992
            ],
            [
              9.944028937499999,
              56.97313579930527
            ],
            [
              10.0163829375,
              56.98117742621528
            ],
            [
              10.020133937499999,
              56.98148148727721
            ],
            [
              10.021745937499999,
              56.98149837948561
            ],
            [
              10.0224899375,
              56.98139702612016
            ],
            [
              10.023357937499998,
              56.978660380967206
            ],
            [
              10.023729937499999,
              56.97818736018489
            ],
            [
              10.0240399375,
              56.97818736018489
            ],
            [
              10.0240399375,
              56.97801842273507
            ],
            [
              10.0260239375,
              56.97774812122129
            ],
            [
              10.0286899375,
              56.97768054553627
            ],
            [
              10.029433937499999,
              56.978457658510486
            ],
            [
              10.0301469375,
              56.97891378248614
            ],
            [
              10.031355937499999,
              56.97926854171576
            ],
            [
              10.032409937499999,
              56.97936990087488
            ],
            [
              10.0328129375,
              56.979994942926346
            ],
            [
              10.033649937499998,
              56.98291729763402
            ],
            [
              10.0363469375,
              56.98313688727761
            ],
            [
              10.037989937499999,
              56.98342404101126
            ],
            [
              10.039756937499998,
              56.994452446382795
            ],
            [
              10.040128937499999,
              56.99813348367241
            ],
            [
              10.0394159375,
              57.0039244703654
            ],
            [
              10.039539937499999,
              57.004869851991934
            ],
            [
              10.041740937499998,
              57.00535941517812
            ],
            [
              10.054915937499999,
              57.00730072300412
            ],
            [
              10.059999937499999,
              57.00790841593723
            ],
            [
              10.0684009375,
              57.00856673874489
            ],
            [
              10.070849937499998,
              57.008921215430725
            ],
            [
              10.0706019375,
              57.01076106395647
            ],
            [
              10.0710359375,
              57.01285399199022
            ],
            [
              10.0709739375,
              57.01356286026738
            ],
            [
              10.0706019375,
              57.01418732826928
            ],
            [
              10.069144937499999,
              57.01541935600645
            ],
            [
              10.068679937499999,
              57.016010039760204
            ],
            [
              10.0684319375,
              57.01671884787953
            ],
            [
              10.068369937499998,
              57.01803516997012
            ],
            [
              10.070694937499999,
              57.01930082034372
            ],
            [
              10.074786937499999,
              57.02061705103122
            ],
            [
              10.076894937499999,
              57.02183199184667
            ],
            [
              10.078847937499999,
              57.023299992360855
            ],
            [
              10.080986937499999,
              57.02618520374434
            ],
            [
              10.0823199375,
              57.02731560562508
            ],
            [
              10.083497937499999,
              57.02728186278311
            ],
            [
              10.085481937499999,
              57.027011918944766
            ],
            [
              10.090875937499998,
              57.025898379888815
            ],
            [
              10.0985329375,
              57.024160517436094
            ],
            [
              10.100299937499999,
              57.02382305899638
            ],
            [
              10.101849937499999,
              57.02377243996622
            ],
            [
              10.102376937499999,
              57.02399178859916
            ],
            [
              10.103027937499999,
              57.02448110011638
            ],
            [
              10.104515937499999,
              57.0265395125103
            ],
            [
              10.1053839375,
              57.02741683396714
            ],
            [
              10.106034937499999,
              57.02755180466102
            ],
            [
              10.1072439375,
              57.02751806203351
            ],
            [
              10.111769937499998,
              57.026978175827146
            ],
            [
              10.123952937499999,
              57.033675584250254
            ],
            [
              10.1263399375,
              57.03490696627391
            ],
            [
              10.126618937499998,
              57.03489009830266
            ],
            [
              10.128912937499999,
              57.03445152836273
            ],
            [
              10.130524937499999,
              57.03397921648476
            ],
            [
              10.1466449375,
              57.02841223131319
            ],
            [
              10.1497759375,
              57.027248119910546
            ],
            [
              10.1538989375,
              57.02594899602413
            ],
            [
              10.1568129375,
              57.02483542512543
            ],
            [
              10.167352937499999,
              57.02129202305252
            ],
            [
              10.1707009375,
              57.02058330210848
            ],
            [
              10.173459937499999,
              57.02039768248585
            ],
            [
              10.173552937499998,
              57.02154513440125
            ],
            [
              10.1733049375,
              57.022338205468614
            ],
            [
              10.1726539375,
              57.0233337388175
            ],
            [
              10.171444937499999,
              57.02453171818158
            ],
            [
              10.1711039375,
              57.02518974675719
            ],
            [
              10.171041937499998,
              57.02610084401658
            ],
            [
              10.1712899375,
              57.02714689110901
            ],
            [
              10.1742349375,
              57.02841223131319
            ],
            [
              10.175133937499998,
              57.02893522601561
            ],
            [
              10.181674937499999,
              57.03515998492367
            ],
            [
              10.1824499375,
              57.03575035507318
            ],
            [
              10.1833799375,
              57.03625637916435
            ],
            [
              10.182728937499999,
              57.03725153977368
            ],
            [
              10.1813649375,
              57.03853340229604
            ],
            [
              10.172591937499998,
              57.04421691776609
            ],
            [
              10.171413937499999,
              57.04475655355808
            ],
            [
              10.168437937499998,
              57.04583580162304
            ],
            [
              10.141343937499999,
              57.05504186180994
            ],
            [
              10.134275937499998,
              57.05760431497527
            ],
            [
              10.121906937499999,
              57.06318378205148
            ],
            [
              10.1149939375,
              57.06616702004253
            ],
            [
              10.1109949375,
              57.068037741874136
            ],
            [
              10.105073937499998,
              57.07054874275846
            ],
            [
              10.1026559375,
              57.0717620514268
            ],
            [
              10.0982229375,
              57.07373359340109
            ],
            [
              10.0843349375,
              57.08151763310267
            ],
            [
              10.083032937499999,
              57.08266319803045
            ],
            [
              10.0818239375,
              57.08436463357837
            ],
            [
              10.0792819375,
              57.08618390405059
            ],
            [
              10.0714699375,
              57.09356114168986
            ],
            [
              10.070663937499999,
              57.094133742585875
            ],
            [
              10.0694859375,
              57.09467265299779
            ],
            [
              10.058945937499999,
              57.098377450026334
            ],
            [
              10.0515989375,
              57.10061698866006
            ],
            [
              10.047227937499999,
              57.101778801259904
            ],
            [
              10.044716937499999,
              57.10226708843969
            ],
            [
              10.038578937499999,
              57.102974251571204
            ],
            [
              10.0352309375,
              57.10312578477253
            ],
            [
              10.022799937499999,
              57.101980851907605
            ],
            [
              10.0224899375,
              57.101980851907605
            ],
            [
              10.019761937499998,
              57.10076853149923
            ],
            [
              10.0088189375,
              57.09728288943965
            ],
            [
              10.0015339375,
              57.093830602036654
            ],
            [
              9.9959229375,
              57.09098432821842
            ],
            [
              9.993132937499999,
              57.08946847193149
            ],
            [
              9.9907459375,
              57.08790202199899
            ],
            [
              9.9857549375,
              57.08421302367738
            ],
            [
              9.982282937499999,
              57.08222519208869
            ],
            [
              9.979864937499999,
              57.080675283377914
            ],
            [
              9.978252937499999,
              57.07919270140141
            ],
            [
              9.9760519375,
              57.07651379507449
            ],
            [
              9.9745329375,
              57.07380099469359
            ],
            [
              9.972734937499999,
              57.06989151733189
            ],
            [
              9.9683949375,
              57.06517263402078
            ],
            [
              9.966503937499999,
              57.06282982264915
            ],
            [
              9.9657909375,
              57.06170050104015
            ],
            [
              9.965449937499999,
              57.06053743242618
            ],
            [
              9.965449937499999,
              57.06036886873415
            ],
            [
              9.970006937499999,
              57.058126898843135
            ],
            [
              9.9719599375,
              57.056660273858185
            ],
            [
              9.9719599375,
              57.05615452767114
            ],
            [
              9.9689219375,
              57.05392916260482
            ],
            [
              9.9673099375,
              57.05193970819744
            ],
            [
              9.9643649375,
              57.05151819993624
            ],
            [
              9.962597937499998,
              57.05096180170552
            ],
            [
              9.9596839375,
              57.04934314126949
            ],
            [
              9.954754937499999,
              57.04612247161926
            ],
            [
              9.9526159375,
              57.044082007593154
            ],
            [
              9.9463539375,
              57.03686359897728
            ],
            [
              9.9448659375,
              57.03564914942799
            ],
            [
              9.943036937499999,
              57.03462020972141
            ],
            [
              9.941486937499999,
              57.03394547969234
            ],
            [
              9.939564937499998,
              57.03330447481669
            ],
            [
              9.935007937499998,
              57.032073039689806
            ],
            [
              9.9305129375,
              57.031313915514005
            ],
            [
              9.9245299375,
              57.03068973513073
            ],
            [
              9.9243749375,
              57.028074811470624
            ],
            [
              9.923103937499999,
              57.02437986377917
            ],
            [
              9.922018937499999,
              57.0224394473659
            ],
            [
              9.917554937499999,
              57.01626318706814
            ],
            [
              9.916872937499999,
              57.01494680224783
            ],
            [
              9.9161599375,
              57.01297213764139
            ],
            [
              9.914082937499998,
              57.00380629597291
            ],
            [
              9.913400937499999,
              56.999112780893874
            ],
            [
              9.913028937499998,
              56.991885636123065
            ],
            [
              9.912439937499999,
              56.99017996035695
            ],
            [
              9.9084719375,
              56.98896398535656
            ],
            [
              9.904193937499999,
              56.987241286108066
            ],
            [
              9.9004739375,
              56.985214479041275
            ],
            [
              9.899698937499998,
              56.98445439794242
            ],
            [
              9.8994199375,
              56.983930777491615
            ]
          ]
        ]
      }
    }
  ]
}
